start=new Date('2022-10-11T00:00:00.000Z').valueOf();
sats=[{"APOAPSIS":"520.814","GP_ID":"214720612","OBJECT_ID":"2022-104C","REF_FRAME":"TEME","BSTAR":"-0.06416000000000","CLASSIFICATION_TYPE":"U","ARG_OF_PERICENTER":"110.8246","LAUNCH_DATE":"2022-08-28","PERIAPSIS":"518.943","OBJECT_TYPE":"PAYLOAD","MEAN_MOTION_DOT":"-0.01129887","FILE":"3601747","DECAY_DATE":null,"MEAN_ANOMALY":"175.8390","TIME_SYSTEM":"UTC","SEMIMAJOR_AXIS":"6898.013","SITE":"AFETR","NORAD_CAT_ID":"53590","OBJECT_NAME":"STARLINK-4689","TLE_LINE2":"2 53590  53.2172  76.8781 0001356 110.8246 175.8390 15.15363185  1303","MEAN_ELEMENT_THEORY":"SGP4","ECCENTRICITY":"0.00013560","EPOCH":"2022-10-10T22:00:01.999584","CENTER_NAME":"EARTH","REV_AT_EPOCH":"130","RA_OF_ASC_NODE":"76.8781","TLE_LINE1":"1 53590U 22104C   22283.91668981 -.01129887  00000-0 -64160-1 0  9992","COUNTRY_CODE":"US","PERIOD":"95.027","MEAN_MOTION_DDOT":"0.0000000000000","INCLINATION":"53.2172","EPHEMERIS_TYPE":"0","MEAN_MOTION":"15.15363185","ELEMENT_SET_NO":"999","RCS_SIZE":"LARGE"},{"MEAN_ELEMENT_THEORY":"SGP4","CENTER_NAME":"EARTH","REV_AT_EPOCH":"130","RA_OF_ASC_NODE":"76.8440","ECCENTRICITY":"0.00013440","EPOCH":"2022-10-10T22:00:01.999584","TLE_LINE1":"1 53591U 22104D   22283.91668981 -.01130251  00000-0 -63625-1 0  9995","MEAN_MOTION_DDOT":"0.0000000000000","INCLINATION":"53.2172","EPHEMERIS_TYPE":"0","MEAN_MOTION":"15.15668632","ELEMENT_SET_NO":"999","RCS_SIZE":"LARGE","COUNTRY_CODE":"US","PERIOD":"95.008","BSTAR":"-0.06362500000000","CLASSIFICATION_TYPE":"U","APOAPSIS":"519.878","GP_ID":"214720303","OBJECT_ID":"2022-104D","REF_FRAME":"TEME","PERIAPSIS":"518.024","LAUNCH_DATE":"2022-08-28","OBJECT_TYPE":"PAYLOAD","MEAN_MOTION_DOT":"-0.01130251","ARG_OF_PERICENTER":"114.1199","SEMIMAJOR_AXIS":"6897.086","TIME_SYSTEM":"UTC","FILE":"3601747","MEAN_ANOMALY":"189.5216","DECAY_DATE":null,"TLE_LINE2":"2 53591  53.2172  76.8440 0001344 114.1199 189.5216 15.15668632  1301","OBJECT_NAME":"STARLINK-4674","SITE":"AFETR","NORAD_CAT_ID":"53591"},{"ECCENTRICITY":"0.00012320","EPOCH":"2022-10-10T22:00:01.999584","CENTER_NAME":"EARTH","RA_OF_ASC_NODE":"76.8115","REV_AT_EPOCH":"130","MEAN_ELEMENT_THEORY":"SGP4","COUNTRY_CODE":"US","PERIOD":"94.988","MEAN_MOTION":"15.15973975","EPHEMERIS_TYPE":"0","INCLINATION":"53.2172","MEAN_MOTION_DDOT":"0.0000000000000","RCS_SIZE":"LARGE","ELEMENT_SET_NO":"999","TLE_LINE1":"1 53592U 22104E   22283.91668981 -.01130470  00000-0 -63086-1 0  9990","ARG_OF_PERICENTER":"102.2661","OBJECT_TYPE":"PAYLOAD","PERIAPSIS":"517.176","LAUNCH_DATE":"2022-08-28","MEAN_MOTION_DOT":"-0.01130470","APOAPSIS":"518.875","REF_FRAME":"TEME","OBJECT_ID":"2022-104E","GP_ID":"214720049","CLASSIFICATION_TYPE":"U","BSTAR":"-0.06308600000000","SITE":"AFETR","NORAD_CAT_ID":"53592","TLE_LINE2":"2 53592  53.2172  76.8115 0001232 102.2661 218.2131 15.15973975  1304","OBJECT_NAME":"STARLINK-4672","FILE":"3601747","DECAY_DATE":null,"MEAN_ANOMALY":"218.2131","SEMIMAJOR_AXIS":"6896.160","TIME_SYSTEM":"UTC"},{"APOAPSIS":"517.965","REF_FRAME":"TEME","GP_ID":"214720775","OBJECT_ID":"2022-104F","CLASSIFICATION_TYPE":"U","BSTAR":"-0.06255100000000","ARG_OF_PERICENTER":"111.8512","OBJECT_TYPE":"PAYLOAD","PERIAPSIS":"516.233","LAUNCH_DATE":"2022-08-28","MEAN_MOTION_DOT":"-0.01130719","FILE":"3601747","DECAY_DATE":null,"MEAN_ANOMALY":"225.3271","SEMIMAJOR_AXIS":"6895.234","TIME_SYSTEM":"UTC","NORAD_CAT_ID":"53593","SITE":"AFETR","TLE_LINE2":"2 53593  53.2172  76.7780 0001256 111.8512 225.3271 15.16279328  1305","OBJECT_NAME":"STARLINK-4671","MEAN_ELEMENT_THEORY":"SGP4","ECCENTRICITY":"0.00012560","EPOCH":"2022-10-10T22:00:01.999584","CENTER_NAME":"EARTH","RA_OF_ASC_NODE":"76.7780","REV_AT_EPOCH":"130","TLE_LINE1":"1 53593U 22104F   22283.91668981 -.01130719  00000-0 -62551-1 0  9993","COUNTRY_CODE":"US","PERIOD":"94.969","MEAN_MOTION":"15.16279328","EPHEMERIS_TYPE":"0","MEAN_MOTION_DDOT":"0.0000000000000","INCLINATION":"53.2172","RCS_SIZE":"LARGE","ELEMENT_SET_NO":"999"},{"CLASSIFICATION_TYPE":"U","BSTAR":"-0.06094700000000","REF_FRAME":"TEME","GP_ID":"214720849","OBJECT_ID":"2022-104G","APOAPSIS":"515.138","MEAN_MOTION_DOT":"-0.01131081","OBJECT_TYPE":"PAYLOAD","PERIAPSIS":"513.510","LAUNCH_DATE":"2022-08-28","ARG_OF_PERICENTER":"74.7268","TIME_SYSTEM":"UTC","SEMIMAJOR_AXIS":"6892.459","DECAY_DATE":null,"MEAN_ANOMALY":"311.7111","FILE":"3601747","TLE_LINE2":"2 53594  53.2172  76.6817 0001181  74.7268 311.7111 15.17195112  1300","OBJECT_NAME":"STARLINK-4681","SITE":"AFETR","NORAD_CAT_ID":"53594","MEAN_ELEMENT_THEORY":"SGP4","RA_OF_ASC_NODE":"76.6817","REV_AT_EPOCH":"130","CENTER_NAME":"EARTH","EPOCH":"2022-10-10T22:00:01.999584","ECCENTRICITY":"0.00011810","TLE_LINE1":"1 53594U 22104G   22283.91668981 -.01131081  00000-0 -60947-1 0  9994","RCS_SIZE":"LARGE","ELEMENT_SET_NO":"999","EPHEMERIS_TYPE":"0","MEAN_MOTION":"15.17195112","MEAN_MOTION_DDOT":"0.0000000000000","INCLINATION":"53.2172","PERIOD":"94.912","COUNTRY_CODE":"US"},{"MEAN_ELEMENT_THEORY":"SGP4","EPOCH":"2022-10-10T22:00:01.999584","ECCENTRICITY":"0.00011500","RA_OF_ASC_NODE":"76.7131","REV_AT_EPOCH":"130","CENTER_NAME":"EARTH","TLE_LINE1":"1 53595U 22104H   22283.91668981 -.01130917  00000-0 -61476-1 0  9990","PERIOD":"94.931","COUNTRY_CODE":"US","RCS_SIZE":"LARGE","ELEMENT_SET_NO":"999","MEAN_MOTION":"15.16889858","EPHEMERIS_TYPE":"0","MEAN_MOTION_DDOT":"0.0000000000000","INCLINATION":"53.2172","REF_FRAME":"TEME","GP_ID":"214719886","OBJECT_ID":"2022-104H","APOAPSIS":"516.042","CLASSIFICATION_TYPE":"U","BSTAR":"-0.06147600000000","ARG_OF_PERICENTER":"84.6401","MEAN_MOTION_DOT":"-0.01130917","OBJECT_TYPE":"PAYLOAD","LAUNCH_DATE":"2022-08-28","PERIAPSIS":"514.456","DECAY_DATE":null,"MEAN_ANOMALY":"285.5175","FILE":"3601747","TIME_SYSTEM":"UTC","SEMIMAJOR_AXIS":"6893.384","SITE":"AFETR","NORAD_CAT_ID":"53595","TLE_LINE2":"2 53595  53.2172  76.7131 0001150  84.6401 285.5175 15.16889858  1300","OBJECT_NAME":"STARLINK-4684"},{"BSTAR":"-0.05987300000000","CLASSIFICATION_TYPE":"U","APOAPSIS":"513.291","OBJECT_ID":"2022-104J","GP_ID":"214720468","REF_FRAME":"TEME","PERIAPSIS":"511.663","LAUNCH_DATE":"2022-08-28","OBJECT_TYPE":"PAYLOAD","MEAN_MOTION_DOT":"-0.01130918","ARG_OF_PERICENTER":"83.1530","SEMIMAJOR_AXIS":"6890.612","TIME_SYSTEM":"UTC","FILE":"3601747","DECAY_DATE":null,"MEAN_ANOMALY":"335.4280","TLE_LINE2":"2 53596  53.2172  76.6182 0001182  83.1530 335.4280 15.17805316  1308","OBJECT_NAME":"STARLINK-4668","SITE":"AFETR","NORAD_CAT_ID":"53596","MEAN_ELEMENT_THEORY":"SGP4","CENTER_NAME":"EARTH","REV_AT_EPOCH":"130","RA_OF_ASC_NODE":"76.6182","ECCENTRICITY":"0.00011820","EPOCH":"2022-10-10T22:00:01.999584","TLE_LINE1":"1 53596U 22104J   22283.91668981 -.01130918  00000-0 -59873-1 0  9990","INCLINATION":"53.2172","MEAN_MOTION_DDOT":"0.0000000000000","MEAN_MOTION":"15.17805316","EPHEMERIS_TYPE":"0","ELEMENT_SET_NO":"999","RCS_SIZE":"LARGE","COUNTRY_CODE":"US","PERIOD":"94.874"},{"COUNTRY_CODE":"US","PERIOD":"94.893","EPHEMERIS_TYPE":"0","MEAN_MOTION":"15.17500216","MEAN_MOTION_DDOT":"0.0000000000000","INCLINATION":"53.2172","RCS_SIZE":"LARGE","ELEMENT_SET_NO":"999","TLE_LINE1":"1 53597U 22104K   22283.91668981 -.01130995  00000-0 -60408-1 0  9992","ECCENTRICITY":"0.00011640","EPOCH":"2022-10-10T22:00:01.999584","CENTER_NAME":"EARTH","RA_OF_ASC_NODE":"76.6493","REV_AT_EPOCH":"130","MEAN_ELEMENT_THEORY":"SGP4","SITE":"AFETR","NORAD_CAT_ID":"53597","TLE_LINE2":"2 53597  53.2172  76.6493 0001164  82.9236 319.6558 15.17500216  1307","OBJECT_NAME":"STARLINK-4682","FILE":"3601747","DECAY_DATE":null,"MEAN_ANOMALY":"319.6558","SEMIMAJOR_AXIS":"6891.536","TIME_SYSTEM":"UTC","ARG_OF_PERICENTER":"82.9236","OBJECT_TYPE":"PAYLOAD","LAUNCH_DATE":"2022-08-28","PERIAPSIS":"512.598","MEAN_MOTION_DOT":"-0.01130995","APOAPSIS":"514.203","REF_FRAME":"TEME","GP_ID":"214721013","OBJECT_ID":"2022-104K","CLASSIFICATION_TYPE":"U","BSTAR":"-0.06040800000000"},{"CLASSIFICATION_TYPE":"U","BSTAR":"-0.05881100000000","REF_FRAME":"TEME","OBJECT_ID":"2022-104L","GP_ID":"214720613","APOAPSIS":"511.493","MEAN_MOTION_DOT":"-0.01130707","OBJECT_TYPE":"PAYLOAD","PERIAPSIS":"509.769","LAUNCH_DATE":"2022-08-28","ARG_OF_PERICENTER":"77.9920","TIME_SYSTEM":"UTC","SEMIMAJOR_AXIS":"6888.766","MEAN_ANOMALY":"12.1744","DECAY_DATE":null,"FILE":"3601747","OBJECT_NAME":"STARLINK-4676","TLE_LINE2":"2 53598  53.2172  76.5561 0001251  77.9920  12.1744 15.18415457  1309","SITE":"AFETR","NORAD_CAT_ID":"53598","MEAN_ELEMENT_THEORY":"SGP4","RA_OF_ASC_NODE":"76.5561","REV_AT_EPOCH":"130","CENTER_NAME":"EARTH","EPOCH":"2022-10-10T22:00:01.999584","ECCENTRICITY":"0.00012510","TLE_LINE1":"1 53598U 22104L   22283.91668981 -.01130707  00000-0 -58811-1 0  9999","RCS_SIZE":"LARGE","ELEMENT_SET_NO":"999","EPHEMERIS_TYPE":"0","MEAN_MOTION":"15.18415457","MEAN_MOTION_DDOT":"0.0000000000000","INCLINATION":"53.2172","PERIOD":"94.836","COUNTRY_CODE":"US"},{"FILE":"3601747","DECAY_DATE":null,"MEAN_ANOMALY":"285.9202","TIME_SYSTEM":"UTC","SEMIMAJOR_AXIS":"6684.502","SITE":"AFETR","NORAD_CAT_ID":"53599","OBJECT_NAME":"STARLINK-4665","TLE_LINE2":"2 53599  53.2132  68.1543 0003915   3.1039 285.9202 15.88543632  1307","APOAPSIS":"308.984","GP_ID":"214720304","OBJECT_ID":"2022-104M","REF_FRAME":"TEME","BSTAR":"0.00089778000000","CLASSIFICATION_TYPE":"U","ARG_OF_PERICENTER":"3.1039","PERIAPSIS":"303.750","LAUNCH_DATE":"2022-08-28","OBJECT_TYPE":"PAYLOAD","MEAN_MOTION_DOT":"0.00263034","TLE_LINE1":"1 53599U 22104M   22283.91668981  .00263034  00000-0  89778-3 0  9995","COUNTRY_CODE":"US","PERIOD":"90.649","MEAN_MOTION_DDOT":"0.0000000000000","INCLINATION":"53.2132","MEAN_MOTION":"15.88543632","EPHEMERIS_TYPE":"0","ELEMENT_SET_NO":"999","RCS_SIZE":"LARGE","MEAN_ELEMENT_THEORY":"SGP4","ECCENTRICITY":"0.00039150","EPOCH":"2022-10-10T22:00:01.999584","CENTER_NAME":"EARTH","REV_AT_EPOCH":"130","RA_OF_ASC_NODE":"68.1543"}];
